[{"OBJECT_NAME":"STARLINK-11420 [DTC]","OBJECT_ID":"2025-008E","EPOCH":"2026-03-09T04:28:59.602080","MEAN_MOTION":15.70951351,"ECCENTRICITY":0.00012118,"INCLINATION":42.9987,"RA_OF_ASC_NODE":129.3295,"ARG_OF_PERICENTER":240.3762,"MEAN_ANOMALY":119.6985,"EPHEMERIS_TYPE":0,"CLASSIFICATION_TYPE":"U","NORAD_CAT_ID":62591,"ELEMENT_SET_NO":999,"REV_AT_EPOCH":6721,"BSTAR":0.0016236667,"MEAN_MOTION_DOT":0.00214351,"MEAN_MOTION_DDOT":0},{"OBJECT_NAME":"FENGYUN 1C DEB","OBJECT_ID":"1999-025FY","EPOCH":"2026-03-09T23:04:12.406944","MEAN_MOTION":15.74540413,"ECCENTRICITY":0.00236267,"INCLINATION":96.9392,"RA_OF_ASC_NODE":240.6295,"ARG_OF_PERICENTER":293.9711,"MEAN_ANOMALY":65.9081,"EPHEMERIS_TYPE":0,"CLASSIFICATION_TYPE":"U","NORAD_CAT_ID":29878,"ELEMENT_SET_NO":999,"REV_AT_EPOCH":99980,"BSTAR":0.01323892,"MEAN_MOTION_DOT":0.02223467,"MEAN_MOTION_DDOT":0}]
